{
    "links": {
        "self": "http://www.neowsapp.com/rest/v1/neo/3603609?api_key=iIulBulltgU6a56xZRHN4H3l9WmuAYTsLGpBGhQ2"
    },
    "id": "3603609",
    "neo_reference_id": "3603609",
    "name": "(2012 JU)",
    "designation": "2012 JU",
    "nasa_jpl_url": "http://ssd.jpl.nasa.gov/sbdb.cgi?sstr=3603609",
    "absolute_magnitude_h": 28.3,
    "estimated_diameter": {
        "kilometers": {
            "estimated_diameter_min": 0.0058150704,
            "estimated_diameter_max": 0.0130028927
        },
        "meters": {
            "estimated_diameter_min": 5.8150703965,
            "estimated_diameter_max": 13.0028927004
        },
        "miles": {
            "estimated_diameter_min": 0.0036133161,
            "estimated_diameter_max": 0.0080796204
        },
        "feet": {
            "estimated_diameter_min": 19.0783155595,
            "estimated_diameter_max": 42.6604104873
        }
    },
    "is_potentially_hazardous_asteroid": false,
    "close_approach_data": [
        {
            "close_approach_date": "2012-05-13",
            "close_approach_date_full": "2012-May-13 13:20",
            "epoch_date_close_approach": 1336915200000,
            "relative_velocity": {
                "kilometers_per_second": "13.3763760753",
                "kilometers_per_hour": "48154.953870945",
                "miles_per_hour": "29921.6156427547"
            },
            "miss_distance": {
                "astronomical": "0.001355124",
                "lunar": "0.527143236",
                "kilometers": "202723.66398588",
                "miles": "125966.643649944"
            },
            "orbiting_body": "Earth"
        },
        {
            "close_approach_date": "2012-05-13",
            "close_approach_date_full": "2012-May-13 17:27",
            "epoch_date_close_approach": 1336930020000,
            "relative_velocity": {
                "kilometers_per_second": "12.5423561304",
                "kilometers_per_hour": "45152.4820694263",
                "miles_per_hour": "28055.9964280833"
            },
            "miss_distance": {
                "astronomical": "0.0021089616",
                "lunar": "0.8203860624",
                "kilometers": "315496.163271792",
                "miles": "196040.2253510496"
            },
            "orbiting_body": "Moon"
        },
        {
            "close_approach_date": "2015-09-03",
            "close_approach_date_full": "2015-Sep-03 06:33",
            "epoch_date_close_approach": 1441261980000,
            "relative_velocity": {
                "kilometers_per_second": "15.6964468273",
                "kilometers_per_hour": "56507.2085782224",
                "miles_per_hour": "35111.3819079516"
            },
            "miss_distance": {
                "astronomical": "0.1634408895",
                "lunar": "63.5785060155",
                "kilometers": "24450408.940105365",
                "miles": "15192779.616829437"
            },
            "orbiting_body": "Earth"
        }
    ],
    "orbital_data": {
        "orbit_id": "6",
        "orbit_determination_date": "2017-04-06 08:49:52",
        "first_observation_date": "2012-05-12",
        "last_observation_date": "2012-05-13",
        "data_arc_in_days": 1,
        "observations_used": 49,
        "orbit_uncertainty": "7",
        "minimum_orbit_intersection": ".0032707",
        "jupiter_tisserand_invariant": "3.480",
        "epoch_osculation": "2459000.5",
        "eccentricity": ".5823428008854468",
        "semi_major_axis": "2.124284977000748",
        "inclination": "7.174078332646722",
        "ascending_node_longitude": "52.10299760933723",
        "orbital_period": "1130.882786336757",
        "perihelion_distance": ".8872229136152554",
        "perihelion_argument": "229.6828790552578",
        "aphelion_distance": "3.36134704038624",
        "perihelion_time": "2459490.182412354438",
        "mean_anomaly": "204.1167638437263",
        "mean_motion": ".3183353786524064",
        "equinox": "J2000",
        "orbit_class": {
            "orbit_class_type": "APO",
            "orbit_class_description": "Near-Earth asteroid orbits which cross the Earth’s orbit similar to that of 1862 Apollo",
            "orbit_class_range": "a (semi-major axis) > 1.0 AU; q (perihelion) < 1.017 AU"
        }
    },
    "is_sentry_object": false
}